BEIDOU-2 IGSO-1 (C06)   
1 36828U 10036A   25280.62565082 -.00000091  00000+0  00000+0 0  9997
2 36828  54.2757 165.2484 0051211 217.1628 324.3474  1.00295180 55560
BEIDOU-2 G4 (C04)       
1 37210U 10057A   25281.60602848 -.00000109  00000+0  00000+0 0  9997
2 37210   3.0178  70.1234 0009462 174.6857 150.8642  1.00270016 54765
BEIDOU-2 IGSO-2 (C07)   
1 37256U 10068A   25280.91830478 -.00000192  00000+0  00000+0 0  9996
2 37256  48.0043 274.9571 0048084 217.0563 320.7459  1.00252239 54268
BEIDOU-2 IGSO-3 (C08)   
1 37384U 11013A   25280.78112777 -.00000187  00000+0  00000+0 0  9993
2 37384  62.0569  42.5462 0036301 181.0903 181.2654  1.00286298 53138
BEIDOU-2 IGSO-4 (C09)   
1 37763U 11038A   25280.65889299 -.00000019  00000+0  00000+0 0  9991
2 37763  54.5781 167.9451 0145092 230.4650 307.4545  1.00255535 52115
BEIDOU-2 IGSO-5 (C10)   
1 37948U 11073A   25280.95650082 -.00000139  00000+0  00000+0 0  9997
2 37948  48.1424 274.6648 0109935 221.7704 319.6955  1.00260863 50608
BEIDOU-2 G5 (C05)       
1 38091U 12008A   25281.64711848  .00000060  00000+0  00000+0 0  9993
2 38091   2.9419  70.9107 0008414 220.9283  17.3869  1.00273516 49849
BEIDOU-2 M3 (C11)       
1 38250U 12018A   25281.35534024 -.00000039  00000+0  00000+0 0  9995
2 38250  55.9733 313.3560 0024537 268.3822  91.3940  1.86229675 91254
BEIDOU-2 M4 (C12)       
1 38251U 12018B   25279.67693356 -.00000029  00000+0  00000+0 0  9991
2 38251  55.8768 312.6468 0015642 268.5067  91.3784  1.86231992 91229
BEIDOU-2 M6 (C14)       
1 38775U 12050B   25281.53555169  .00000000  00000+0  00000+0 0  9993
2 38775  56.3224  71.2295 0010638 355.9605   4.0272  1.86230807 88625
BEIDOU-2 G6 (C02)       
1 38953U 12059A   25281.58081817 -.00000172  00000+0  00000+0 0  9990
2 38953   3.7781  76.1406 0006142 305.6954 288.7687  1.00273512 47384
BEIDOU-3S IGSO-1S (C31) 
1 40549U 15019A   25281.48895002 -.00000138  00000+0  00000+0 0  9993
2 40549  49.6740 298.4949 0041090 197.1991 148.7889  1.00253349 38542
BEIDOU-3S M2S (C58)     
1 40748U 15037A   25281.49242394 -.00000038  00000+0  00000+0 0  9994
2 40748  55.0943 310.7040 0012824 257.6166 102.2921  1.86229055 69433
BEIDOU-3S M1S (C57)     
1 40749U 15037B   25279.58371262 -.00000028  00000+0  00000+0 0  9998
2 40749  55.0925 310.7600 0002567 352.1766   7.8811  1.86253842 69402
BEIDOU-3S IGSO-2S (C56) 
1 40938U 15053A   25281.41136227 -.00000141  00000+0  00000+0 0  9997
2 40938  49.6172 261.7772 0062077 189.4932 169.3564  1.00284703 36823
BEIDOU-2 IGSO-6 (C13)   
1 41434U 16021A   25281.29760300 -.00000161  00000+0  00000+0 0  9998
2 41434  59.8765  40.5549 0057227 228.3873 310.2854  1.00265646 34955
BEIDOU-2 G7 (C03)       
1 41586U 16037A   25281.65743186 -.00000350  00000+0  00000+0 0  9996
2 41586   1.5935  66.8692 0004922 340.3159 317.5067  1.00265721  4364
BEIDOU-3 M1 (C19)       
1 43001U 17069A   25281.30108725  .00000002  00000+0  00000+0 0  9995
2 43001  56.4707  71.3955 0007114 312.8372  47.1004  1.86230903 53914
BEIDOU-3 M2 (C20)       
1 43002U 17069B   25281.23934738  .00000002  00000+0  00000+0 0  9999
2 43002  56.4700  71.4333 0005554 352.0516   7.9373  1.86230667 53900
BEIDOU-3 M7 (C27)       
1 43107U 18003A   25280.44642649 -.00000034  00000+0  00000+0 0  9999
2 43107  54.5535 311.1205 0002407  93.5386 266.5465  1.86232386 52644
BEIDOU-3 M8 (C28)       
1 43108U 18003B   25279.31689306 -.00000028  00000+0  00000+0 0  9998
2 43108  54.5472 311.1430 0004918 259.9208 100.0861  1.86230874 52636
BEIDOU-3 M4 (C22)       
1 43207U 18018A   25281.36931904  .00000001  00000+0  00000+0 0  9996
2 43207  56.4299  71.4658 0005090  38.1281 321.9051  1.86230846 52052
BEIDOU-3 M3 (C21)       
1 43208U 18018B   25280.89893743  .00000005  00000+0  00000+0 0  9996
2 43208  56.4288  71.4854 0005069 335.2826  24.6924  1.86230905 52042
BEIDOU-3 M9 (C29)       
1 43245U 18029A   25281.11520211 -.00000035  00000+0  00000+0 0  9996
2 43245  54.4232 308.7569 0002249 245.0001 115.0275  1.86232431 51206
BEIDOU-3 M10 (C30)      
1 43246U 18029B   25281.05005718 -.00000035  00000+0  00000+0 0  9990
2 43246  54.4208 308.7865 0002903 355.3835   4.6653  1.86229003 51187
BEIDOU-2 IGSO-7 (C16)   
1 43539U 18057A   25280.59239719 -.00000101  00000+0  00000+0 0  9998
2 43539  55.1676 165.2526 0092099 236.0274 300.9635  1.00277050 26596
BEIDOU-3 M5 (C23)       
1 43581U 18062A   25280.20091477  .00000030  00000+0  00000+0 0  9996
2 43581  54.0922 190.9072 0003398 310.1276  49.8853  1.86228524 48924
BEIDOU-3 M6 (C24)       
1 43582U 18062B   25278.99045038  .00000021  00000+0  00000+0 0  9992
2 43582  54.0921 190.9375 0006349  29.5408 330.5297  1.86229664 48903
BEIDOU-3 M12 (C26)      
1 43602U 18067A   25281.07537582  .00000035  00000+0  00000+0 0  9998
2 43602  54.1857 189.5914 0008490  33.6346 326.4703  1.86227548 48426
BEIDOU-3 M11 (C25)      
1 43603U 18067B   25281.20971720  .00000035  00000+0  00000+0 0  9990
2 43603  54.1830 189.5510 0005037  24.5966 335.4793  1.86227067 48459
BEIDOU-3 M13 (C32)      
1 43622U 18072A   25278.48211825  .00000022  00000+0  00000+0 0  9992
2 43622  56.3339  71.0707 0012517 336.8112  23.1446  1.86231649 47911
BEIDOU-3 M14 (C33)      
1 43623U 18072B   25278.88454490  .00000019  00000+0  00000+0 0  9990
2 43623  56.4022  71.0596 0002950  15.4523 344.5667  1.86231022 47914
BEIDOU-3 M16 (C35)      
1 43647U 18078A   25280.11720914 -.00000030  00000+0  00000+0 0  9992
2 43647  54.3204 308.8506 0005939  19.1765 340.9020  1.86232173 47449
BEIDOU-3 M15 (C34)      
1 43648U 18078B   25280.24639541 -.00000031  00000+0  00000+0 0  9993
2 43648  54.3157 308.8472 0002495  21.5249 338.5411  1.86232169 47461
BEIDOU-3 G1 (C59)       
1 43683U 18085A   25281.66332522 -.00000273  00000+0  00000+0 0  9994
2 43683   2.9404 104.4977 0003322  15.0241 276.9203  1.00272601 25533
BEIDOU-3 M17 (C36)      
1 43706U 18093A   25281.22535220  .00000034  00000+0  00000+0 0  9995
2 43706  54.1755 190.8460 0008107 297.9561 252.8540  1.86228101 46849
BEIDOU-3 M18 (C37)      
1 43707U 18093B   25279.19124669  .00000023  00000+0  00000+0 0  9998
2 43707  54.1766 190.9068 0007139 332.6915  27.3070  1.86229821 46800
BEIDOU-3 IGSO-1 (C38)   
1 44204U 19023A   25281.23095603 -.00000221  00000+0  00000+0 0  9999
2 44204  58.3436  40.2550 0025803 217.2379 320.9635  1.00263433  4688
BEIDOU-2 G8 (C01)       
1 44231U 19027A   25281.56241112 -.00000244  00000+0  00000+0 0  9992
2 44231   1.4919  74.4258 0006818 257.4758  32.5838  1.00271760 23559
BEIDOU-3 IGSO-2 (C39)   
1 44337U 19035A   25280.59290446 -.00000099  00000+0  00000+0 0  9992
2 44337  55.2140 161.0852 0037369 203.2111 343.3010  1.00291695 23137
BEIDOU-3 M24 (C46)      
1 44542U 19061A   25279.26270484  .00000023  00000+0  00000+0 0  9997
2 44542  54.4036 191.2933 0009011  10.1370 349.9168  1.86229365 41067
BEIDOU-3 M23 (C45)      
1 44543U 19061B   25281.30105446  .00000034  00000+0  00000+0 0  9993
2 44543  54.4016 191.1929 0005718   0.3063 199.1630  1.86229353 41101
BEIDOU-3 IGSO-3 (C40)   
1 44709U 19073A   25280.41319182 -.00000173  00000+0  00000+0 0  9990
2 44709  55.2369 283.6302 0045342 192.0326 167.8514  1.00263917 21926
BEIDOU-3 M22 (C44)      
1 44793U 19078A   25280.71449258 -.00000034  00000+0  00000+0 0  9995
2 44793  54.1662 308.7030 0004607  25.1254 334.9498  1.86231985 39948
BEIDOU-3 M21 (C43)      
1 44794U 19078B   25280.85064384 -.00000034  00000+0  00000+0 0  9994
2 44794  54.1396 308.6645 0002809   9.8296 350.2279  1.86227604 39953
BEIDOU-3 M19 (C41)      
1 44864U 19090A   25278.41824293  .00000023  00000+0  00000+0 0  9995
2 44864  56.3337  71.2264 0015587 285.9575  78.4565  1.86231374 39499
BEIDOU-3 M20 (C42)      
1 44865U 19090B   25281.49193015  .00000000  00000+0  00000+0 0  9994
2 44865  56.3385  71.1583 0012994 300.9203  53.8608  1.86231160 39523
BEIDOU-3 G2 (C60)       
1 45344U 20017A   25281.65136516 -.00000138  00000+0  00000+0 0  9992
2 45344   2.8766  42.5073 0002148 257.1233  32.4290  1.00270248 20736
BEIDOU-3 G3 (C61)       
1 45807U 20040A   25281.65743186 -.00000351  00000+0  00000+0 0  9996
2 45807   1.8289  65.8541 0004026 308.9670 350.0134  1.00271269 19541
BEIDOU-3 G4 (C62)       
1 56564U 23066A   25281.51445984 -.00000111  00000+0  00000+0 0  9993
2 56564   0.9649 297.3790 0005347 221.9239 203.3056  1.00268143  8877
BEIDOU-3 M28 (C50)      
1 58654U 23207A   25281.46624068 -.00000002  00000+0  00000+0 0  9997
2 58654  55.5274  70.8098 0000169 164.9294 195.0680  1.86229683 12154
BEIDOU-3 M26 (C48)      
1 58655U 23207B   25281.26442582 -.00000001  00000+0  00000+0 0  9994
2 58655  55.5293  70.8028 0001653 225.9898 133.9942  1.86231280 12132
BEIDOU-3 M25 (C47)      
1 61186U 24168B   25281.19131822 -.00000038  00000+0  00000+0 0  9998
2 61186  54.6981 310.9921 0005309 281.6404 146.4676  1.86229815  7096
BEIDOU-3 M27 (C49)      
1 61187U 24168C   25281.53577132 -.00000039  00000+0  00000+0 0  9996
2 61187  54.6932 310.9639 0001566 303.3436 130.6139  1.86229887  4575
